[{"OBJECT_NAME":"QIANFAN-43","OBJECT_ID":"2024-232H","EPOCH":"2026-03-09T22:20:45.605760","MEAN_MOTION":13.51005498,"ECCENTRICITY":0.00140223,"INCLINATION":89.0069,"RA_OF_ASC_NODE":32.4652,"ARG_OF_PERICENTER":310.8989,"MEAN_ANOMALY":49.0947,"EPHEMERIS_TYPE":0,"CLASSIFICATION_TYPE":"U","NORAD_CAT_ID":62244,"ELEMENT_SET_NO":999,"REV_AT_EPOCH":7963,"BSTAR":0.00014836339,"MEAN_MOTION_DOT":1.08e-6,"MEAN_MOTION_DDOT":0},{"OBJECT_NAME":"OPS 8464 (TRANSIT 5B-7)","OBJECT_ID":"1965-065F","EPOCH":"2026-03-09T23:13:40.294272","MEAN_MOTION":13.35351324,"ECCENTRICITY":0.00717147,"INCLINATION":89.9873,"RA_OF_ASC_NODE":227.9397,"ARG_OF_PERICENTER":80.6843,"MEAN_ANOMALY":35.6334,"EPHEMERIS_TYPE":0,"CLASSIFICATION_TYPE":"U","NORAD_CAT_ID":1514,"ELEMENT_SET_NO":999,"REV_AT_EPOCH":94802,"BSTAR":0.00017584555,"MEAN_MOTION_DOT":1.0e-6,"MEAN_MOTION_DDOT":0}]
